STARLINK-31046
1 58552U 23192X   25332.99589176 -.00000351  00000+0  27701-6 0  9993
2 58552  53.1589 170.8101 0001158 103.1602 256.9528 15.30188571110563